{
    "links": {
        "self": "http://www.neowsapp.com/rest/v1/neo/3383671?api_key=iIulBulltgU6a56xZRHN4H3l9WmuAYTsLGpBGhQ2"
    },
    "id": "3383671",
    "neo_reference_id": "3383671",
    "name": "(2007 RO1)",
    "designation": "2007 RO1",
    "nasa_jpl_url": "http://ssd.jpl.nasa.gov/sbdb.cgi?sstr=3383671",
    "absolute_magnitude_h": 23.5,
    "estimated_diameter": {
        "kilometers": {
            "estimated_diameter_min": 0.0530340723,
            "estimated_diameter_max": 0.1185877909
        },
        "meters": {
            "estimated_diameter_min": 53.0340723319,
            "estimated_diameter_max": 118.5877908577
        },
        "miles": {
            "estimated_diameter_min": 0.0329538346,
            "estimated_diameter_max": 0.0736870142
        },
        "feet": {
            "estimated_diameter_min": 173.9963058693,
            "estimated_diameter_max": 389.0675677576
        }
    },
    "is_potentially_hazardous_asteroid": false,
    "close_approach_data": [
        {
            "close_approach_date": "2007-08-31",
            "close_approach_date_full": "2007-Aug-31 10:47",
            "epoch_date_close_approach": 1188557220000,
            "relative_velocity": {
                "kilometers_per_second": "14.6287858489",
                "kilometers_per_hour": "52663.6290561134",
                "miles_per_hour": "32723.13106545"
            },
            "miss_distance": {
                "astronomical": "0.0392064094",
                "lunar": "15.2512932566",
                "kilometers": "5865195.336587978",
                "miles": "3644463.3861429764"
            },
            "orbiting_body": "Earth"
        },
        {
            "close_approach_date": "2031-04-19",
            "close_approach_date_full": "2031-Apr-19 13:40",
            "epoch_date_close_approach": 1934372400000,
            "relative_velocity": {
                "kilometers_per_second": "26.5443703414",
                "kilometers_per_hour": "95559.7332289003",
                "miles_per_hour": "59377.1020165909"
            },
            "miss_distance": {
                "astronomical": "0.4902254117",
                "lunar": "190.6976851513",
                "kilometers": "73336677.410193079",
                "miles": "45569298.2662553302"
            },
            "orbiting_body": "Earth"
        },
        {
            "close_approach_date": "2041-09-27",
            "close_approach_date_full": "2041-Sep-27 18:22",
            "epoch_date_close_approach": 2263918920000,
            "relative_velocity": {
                "kilometers_per_second": "27.5853886105",
                "kilometers_per_hour": "99307.3989978126",
                "miles_per_hour": "61705.7557828353"
            },
            "miss_distance": {
                "astronomical": "0.4917005427",
                "lunar": "191.2715111103",
                "kilometers": "73557353.865764049",
                "miles": "45706420.2573159162"
            },
            "orbiting_body": "Earth"
        }
    ],
    "orbital_data": {
        "orbit_id": "10",
        "orbit_determination_date": "2017-04-06 09:06:09",
        "first_observation_date": "2007-09-04",
        "last_observation_date": "2007-10-02",
        "data_arc_in_days": 28,
        "observations_used": 35,
        "orbit_uncertainty": "7",
        "minimum_orbit_intersection": ".0147728",
        "jupiter_tisserand_invariant": "3.338",
        "epoch_osculation": "2459000.5",
        "eccentricity": ".6065647419287532",
        "semi_major_axis": "2.261123049703588",
        "inclination": "8.524472140775805",
        "ascending_node_longitude": "339.4070679154579",
        "orbital_period": "1241.89455408806",
        "perihelion_distance": ".8896055305909757",
        "perihelion_argument": "307.0073482251711",
        "aphelion_distance": "3.6326405688162",
        "perihelion_time": "2459276.575915538879",
        "mean_anomaly": "279.9712010437328",
        "mean_motion": ".2898796832750047",
        "equinox": "J2000",
        "orbit_class": {
            "orbit_class_type": "APO",
            "orbit_class_description": "Near-Earth asteroid orbits which cross the Earth’s orbit similar to that of 1862 Apollo",
            "orbit_class_range": "a (semi-major axis) > 1.0 AU; q (perihelion) < 1.017 AU"
        }
    },
    "is_sentry_object": false
}